STARLINK-36624          
1 67636U 26020V   26044.13750828  .00293099  00000+0  13434-2 0  9996
2 67636  42.9978 291.1635 0001948 281.5859  78.4794 15.82086253  2210
STARLINK-36610          
1 67637U 26020W   26044.50003471 -.00019774  00000+0 -11862-3 0  9995
2 67637  42.9990 289.0486 0001584 269.8126 313.8257 15.76385654  3500
STARLINK-36599          
1 67638U 26020X   26044.13521801  .00297787  00000+0  13628-2 0  9998
2 67638  42.9983 291.1428 0002570 264.0342  96.0237 15.82105984  2214
STARLINK-36595          
1 67639U 26020Y   26044.13443146  .00315120  00000+0  14399-2 0  9992
2 67639  42.9983 291.1356 0002382 261.6975  98.3626 15.82094995  2217
STARLINK-36570          
1 67640U 26020Z   26044.50003471 -.00065799  00000+0 -40367-3 0  9999
2 67640  42.9991 288.9543 0001977 255.6934   5.2813 15.76394249  3503
STARLINK-36514          
1 67641U 26020AA  26044.13214060  .00280229  00000+0  12861-2 0  9999
2 67641  42.9982 291.1169 0001918 263.9229  96.1424 15.82092695  2219
STARLINK-36556          
1 67642U 26020AB  26044.13150577  .00217857  00000+0  10091-2 0  9992
2 67642  42.9984 291.1114 0002340 241.0578 119.0059 15.82062901  2212
STARLINK-36533          
1 67643U 26020AC  26044.50003471  .00020442  00000+0  12827-3 0  9996
2 67643  42.9990 288.9853 0001694 265.1755 343.3608 15.76357764  3501
STARLINK-36623          
1 67644U 26020AD  26044.50003471  .00015825  00000+0  10006-3 0  9993
2 67644  42.9991 288.8902 0001712 260.7233  25.1427 15.76348912  3509
STARLINK-36619          
1 67645U 26020AE  26044.50003471 -.01036966  00000+0 -68199-2 0  9991
2 67645  42.9990 288.8611 0001516 261.4373  36.4307 15.77131179  3509
ALSAT-3B                
1 67646U 26021A   26044.47905887  .00007455  00000+0  31402-3 0  9997
2 67646  97.4720 118.9199 0011894 215.0766 144.9688 15.23577525  2035
CZ-2C R/B               
1 67647U 26021B   26044.48189390  .00013565  00000+0  41007-3 0  9993
2 67647  97.6561 119.4631 0153734  95.3512 266.5285 15.23422554  2019
