CCSDS_OMM_VERS = 2.0
CREATION_DATE  = 
ORIGINATOR     = 

OBJECT_NAME    = STARLINK-36624
OBJECT_ID      = 2026-020V
CENTER_NAME    = EARTH
REF_FRAME      = TEME
TIME_SYSTEM    = UTC
MEAN_ELEMENT_THEORY = SGP/SGP4

EPOCH          = 2026-02-13T03:18:00.715392
MEAN_MOTION    = 15.82086253
ECCENTRICITY   = .00019482
INCLINATION    = 42.9978
RA_OF_ASC_NODE = 291.1635
ARG_OF_PERICENTER = 281.5859
MEAN_ANOMALY   = 78.4794

EPHEMERIS_TYPE = 0
CLASSIFICATION_TYPE = U
NORAD_CAT_ID   = 67636
ELEMENT_SET_NO = 999
REV_AT_EPOCH   = 221
BSTAR          = .13434464E-2
MEAN_MOTION_DOT = .293099E-2
MEAN_MOTION_DDOT = 0

CCSDS_OMM_VERS = 2.0
CREATION_DATE  = 
ORIGINATOR     = 

OBJECT_NAME    = STARLINK-36610
OBJECT_ID      = 2026-020W
CENTER_NAME    = EARTH
REF_FRAME      = TEME
TIME_SYSTEM    = UTC
MEAN_ELEMENT_THEORY = SGP/SGP4

EPOCH          = 2026-02-13T12:00:02.998944
MEAN_MOTION    = 15.76385654
ECCENTRICITY   = .0001584
INCLINATION    = 42.9990
RA_OF_ASC_NODE = 289.0486
ARG_OF_PERICENTER = 269.8126
MEAN_ANOMALY   = 313.8257

EPHEMERIS_TYPE = 0
CLASSIFICATION_TYPE = U
NORAD_CAT_ID   = 67637
ELEMENT_SET_NO = 999
REV_AT_EPOCH   = 350
BSTAR          = -.11862E-3
MEAN_MOTION_DOT = -.19774E-3
MEAN_MOTION_DDOT = 0

CCSDS_OMM_VERS = 2.0
CREATION_DATE  = 
ORIGINATOR     = 

OBJECT_NAME    = STARLINK-36599
OBJECT_ID      = 2026-020X
CENTER_NAME    = EARTH
REF_FRAME      = TEME
TIME_SYSTEM    = UTC
MEAN_ELEMENT_THEORY = SGP/SGP4

EPOCH          = 2026-02-13T03:14:42.836064
MEAN_MOTION    = 15.82105984
ECCENTRICITY   = .00025706
INCLINATION    = 42.9983
RA_OF_ASC_NODE = 291.1428
ARG_OF_PERICENTER = 264.0342
MEAN_ANOMALY   = 96.0237

EPHEMERIS_TYPE = 0
CLASSIFICATION_TYPE = U
NORAD_CAT_ID   = 67638
ELEMENT_SET_NO = 999
REV_AT_EPOCH   = 221
BSTAR          = .13628489E-2
MEAN_MOTION_DOT = .297787E-2
MEAN_MOTION_DDOT = 0

CCSDS_OMM_VERS = 2.0
CREATION_DATE  = 
ORIGINATOR     = 

OBJECT_NAME    = STARLINK-36595
OBJECT_ID      = 2026-020Y
CENTER_NAME    = EARTH
REF_FRAME      = TEME
TIME_SYSTEM    = UTC
MEAN_ELEMENT_THEORY = SGP/SGP4

EPOCH          = 2026-02-13T03:13:34.878144
MEAN_MOTION    = 15.82094995
ECCENTRICITY   = .00023823
INCLINATION    = 42.9983
RA_OF_ASC_NODE = 291.1356
ARG_OF_PERICENTER = 261.6975
MEAN_ANOMALY   = 98.3626

EPHEMERIS_TYPE = 0
CLASSIFICATION_TYPE = U
NORAD_CAT_ID   = 67639
ELEMENT_SET_NO = 999
REV_AT_EPOCH   = 221
BSTAR          = .14398822E-2
MEAN_MOTION_DOT = .31512E-2
MEAN_MOTION_DDOT = 0

CCSDS_OMM_VERS = 2.0
CREATION_DATE  = 
ORIGINATOR     = 

OBJECT_NAME    = STARLINK-36570
OBJECT_ID      = 2026-020Z
CENTER_NAME    = EARTH
REF_FRAME      = TEME
TIME_SYSTEM    = UTC
MEAN_ELEMENT_THEORY = SGP/SGP4

EPOCH          = 2026-02-13T12:00:02.998944
MEAN_MOTION    = 15.76394249
ECCENTRICITY   = .0001977
INCLINATION    = 42.9991
RA_OF_ASC_NODE = 288.9543
ARG_OF_PERICENTER = 255.6934
MEAN_ANOMALY   = 5.2813

EPHEMERIS_TYPE = 0
CLASSIFICATION_TYPE = U
NORAD_CAT_ID   = 67640
ELEMENT_SET_NO = 999
REV_AT_EPOCH   = 350
BSTAR          = -.40367E-3
MEAN_MOTION_DOT = -.65799E-3
MEAN_MOTION_DDOT = 0

CCSDS_OMM_VERS = 2.0
CREATION_DATE  = 
ORIGINATOR     = 

OBJECT_NAME    = STARLINK-36514
OBJECT_ID      = 2026-020AA
CENTER_NAME    = EARTH
REF_FRAME      = TEME
TIME_SYSTEM    = UTC
MEAN_ELEMENT_THEORY = SGP/SGP4

EPOCH          = 2026-02-13T03:10:16.947840
MEAN_MOTION    = 15.82092695
ECCENTRICITY   = .00019182
INCLINATION    = 42.9982
RA_OF_ASC_NODE = 291.1169
ARG_OF_PERICENTER = 263.9229
MEAN_ANOMALY   = 96.1424

EPHEMERIS_TYPE = 0
CLASSIFICATION_TYPE = U
NORAD_CAT_ID   = 67641
ELEMENT_SET_NO = 999
REV_AT_EPOCH   = 221
BSTAR          = .12861093E-2
MEAN_MOTION_DOT = .280229E-2
MEAN_MOTION_DDOT = 0

CCSDS_OMM_VERS = 2.0
CREATION_DATE  = 
ORIGINATOR     = 

OBJECT_NAME    = STARLINK-36556
OBJECT_ID      = 2026-020AB
CENTER_NAME    = EARTH
REF_FRAME      = TEME
TIME_SYSTEM    = UTC
MEAN_ELEMENT_THEORY = SGP/SGP4

EPOCH          = 2026-02-13T03:09:22.098528
MEAN_MOTION    = 15.82062901
ECCENTRICITY   = .00023408
INCLINATION    = 42.9984
RA_OF_ASC_NODE = 291.1114
ARG_OF_PERICENTER = 241.0578
MEAN_ANOMALY   = 119.0059

EPHEMERIS_TYPE = 0
CLASSIFICATION_TYPE = U
NORAD_CAT_ID   = 67642
ELEMENT_SET_NO = 999
REV_AT_EPOCH   = 221
BSTAR          = .100906E-2
MEAN_MOTION_DOT = .217857E-2
MEAN_MOTION_DDOT = 0

CCSDS_OMM_VERS = 2.0
CREATION_DATE  = 
ORIGINATOR     = 

OBJECT_NAME    = STARLINK-36533
OBJECT_ID      = 2026-020AC
CENTER_NAME    = EARTH
REF_FRAME      = TEME
TIME_SYSTEM    = UTC
MEAN_ELEMENT_THEORY = SGP/SGP4

EPOCH          = 2026-02-13T12:00:02.998944
MEAN_MOTION    = 15.76357764
ECCENTRICITY   = .0001694
INCLINATION    = 42.9990
RA_OF_ASC_NODE = 288.9853
ARG_OF_PERICENTER = 265.1755
MEAN_ANOMALY   = 343.3608

EPHEMERIS_TYPE = 0
CLASSIFICATION_TYPE = U
NORAD_CAT_ID   = 67643
ELEMENT_SET_NO = 999
REV_AT_EPOCH   = 350
BSTAR          = .12827E-3
MEAN_MOTION_DOT = .20442E-3
MEAN_MOTION_DDOT = 0

CCSDS_OMM_VERS = 2.0
CREATION_DATE  = 
ORIGINATOR     = 

OBJECT_NAME    = STARLINK-36623
OBJECT_ID      = 2026-020AD
CENTER_NAME    = EARTH
REF_FRAME      = TEME
TIME_SYSTEM    = UTC
MEAN_ELEMENT_THEORY = SGP/SGP4

EPOCH          = 2026-02-13T12:00:02.998944
MEAN_MOTION    = 15.76348912
ECCENTRICITY   = .0001712
INCLINATION    = 42.9991
RA_OF_ASC_NODE = 288.8902
ARG_OF_PERICENTER = 260.7233
MEAN_ANOMALY   = 25.1427

EPHEMERIS_TYPE = 0
CLASSIFICATION_TYPE = U
NORAD_CAT_ID   = 67644
ELEMENT_SET_NO = 999
REV_AT_EPOCH   = 350
BSTAR          = .10006E-3
MEAN_MOTION_DOT = .15825E-3
MEAN_MOTION_DDOT = 0

CCSDS_OMM_VERS = 2.0
CREATION_DATE  = 
ORIGINATOR     = 

OBJECT_NAME    = STARLINK-36619
OBJECT_ID      = 2026-020AE
CENTER_NAME    = EARTH
REF_FRAME      = TEME
TIME_SYSTEM    = UTC
MEAN_ELEMENT_THEORY = SGP/SGP4

EPOCH          = 2026-02-13T12:00:02.998944
MEAN_MOTION    = 15.77131179
ECCENTRICITY   = .0001516
INCLINATION    = 42.9990
RA_OF_ASC_NODE = 288.8611
ARG_OF_PERICENTER = 261.4373
MEAN_ANOMALY   = 36.4307

EPHEMERIS_TYPE = 0
CLASSIFICATION_TYPE = U
NORAD_CAT_ID   = 67645
ELEMENT_SET_NO = 999
REV_AT_EPOCH   = 350
BSTAR          = -.68199E-2
MEAN_MOTION_DOT = -.1036966E-1
MEAN_MOTION_DDOT = 0

CCSDS_OMM_VERS = 2.0
CREATION_DATE  = 
ORIGINATOR     = 

OBJECT_NAME    = ALSAT-3B
OBJECT_ID      = 2026-021A
CENTER_NAME    = EARTH
REF_FRAME      = TEME
TIME_SYSTEM    = UTC
MEAN_ELEMENT_THEORY = SGP/SGP4

EPOCH          = 2026-02-13T11:29:50.686368
MEAN_MOTION    = 15.23577525
ECCENTRICITY   = .0011894
INCLINATION    = 97.4720
RA_OF_ASC_NODE = 118.9199
ARG_OF_PERICENTER = 215.0766
MEAN_ANOMALY   = 144.9688

EPHEMERIS_TYPE = 0
CLASSIFICATION_TYPE = U
NORAD_CAT_ID   = 67646
ELEMENT_SET_NO = 999
REV_AT_EPOCH   = 203
BSTAR          = .31402E-3
MEAN_MOTION_DOT = .7455E-4
MEAN_MOTION_DDOT = 0

CCSDS_OMM_VERS = 2.0
CREATION_DATE  = 
ORIGINATOR     = 

OBJECT_NAME    = CZ-2C R/B
OBJECT_ID      = 2026-021B
CENTER_NAME    = EARTH
REF_FRAME      = TEME
TIME_SYSTEM    = UTC
MEAN_ELEMENT_THEORY = SGP/SGP4

EPOCH          = 2026-02-13T11:33:55.632960
MEAN_MOTION    = 15.23422554
ECCENTRICITY   = .0153734
INCLINATION    = 97.6561
RA_OF_ASC_NODE = 119.4631
ARG_OF_PERICENTER = 95.3512
MEAN_ANOMALY   = 266.5285

EPHEMERIS_TYPE = 0
CLASSIFICATION_TYPE = U
NORAD_CAT_ID   = 67647
ELEMENT_SET_NO = 999
REV_AT_EPOCH   = 201
BSTAR          = .41007E-3
MEAN_MOTION_DOT = .13565E-3
MEAN_MOTION_DDOT = 0

